25943,GLOBALSTAR M057,1999,117.57,-1.0,-,52.0,Inactive,0,LEO,Kazakhstan,Globalstar,Unknown,Unknown,Unknown,1 25943U 99058A   24041.12100801 -.00000052  00000+0  37063-3 0  9997,2 25943  51.9999 307.4665 0003272  69.3604 290.7596 12.24779186106518,12.24779186,0.0003272,LEO
25944,GLOBALSTAR M059,1999,120.0,-1.0,-,52.0,Inactive,0,LEO,Kazakhstan,Globalstar,Unknown,Unknown,Unknown,1 25944U 99058B   24041.47861031 -.00000007  00000+0  98638-3 0  9990,2 25944  52.0014 100.0824 0000923 121.6497 341.5325 11.99962008514892,11.99962008,9.23e-05,LEO
25945,GLOBALSTAR M056,1999,119.52,-1.0,-,52.0,Inactive,0,LEO,Kazakhstan,Globalstar,Unknown,Unknown,Unknown,1 25945U 99058C   24041.53849682 -.00000106  00000+0 -21523-3 0  9996,2 25945  51.9960 114.5343 0000612 231.0104 236.6387 12.04773733103240,12.04773733,6.12e-05,LEO
25946,GLOBALSTAR M031,1999,118.42,-1.0,-,52.0,Inactive,0,LEO,Kazakhstan,Globalstar,Unknown,Unknown,Unknown,1 25946U 99058D   24041.41046149 -.00000007  00000+0  84582-3 0  9994,2 25946  51.9979  36.6947 0001300 255.9193 251.6729 12.16001414104592,12.16001414,0.00013,LEO
25961,GLOBALSTAR M039,1999,114.08,-1.0,-,51.99,Inactive,0,LEO,Kazakhstan,Globalstar,Unknown,Unknown,Unknown,1 25961U 99062A   24041.18068727 -.00000065  00000+0  21442-3 0  9996,2 25961  51.9870 330.2627 0002893 346.3982  13.6806 12.62281217117954,12.62281217,0.0002893,LEO
25962,GLOBALSTAR M034,1999,122.09,-1.0,-,51.98,Inactive,0,LEO,Kazakhstan,Globalstar,Unknown,Unknown,Unknown,1 25962U 99062B   24040.80696253 -.00000075  00000+0  89193-4 0  9995,2 25962  51.9839 213.8629 0014079 185.2686 280.4396 11.79424342 80174,11.79424342,0.0014079,LEO
25963,GLOBALSTAR M029,1999,120.01,-1.0,-,51.98,Inactive,0,LEO,Kazakhstan,Globalstar,Unknown,Unknown,Unknown,1 25963U 99062C   24041.03207058 -.00000079  00000+0  86534-4 0  9993,2 25963  51.9835 349.7497 0002208 229.0068 211.1471 11.99873327109928,11.99873327,0.0002208,LEO
25964,GLOBALSTAR M061,1999,122.37,-1.0,-,51.98,Inactive,0,LEO,Kazakhstan,Globalstar,Unknown,Unknown,Unknown,1 25964U 99062D   24041.40548971 -.00000073  00000+0  12086-3 0  9991,2 25964  51.9815  29.8118 0006142 118.3920  49.1020 11.76758622 63160,11.76758622,0.0006142,LEO
